IRIDIUM 7               
1 24793U 97020B   25344.75074613  .00000744  00000+0  24886-3 0  9999
2 24793  86.3954 102.9315 0001690  97.1619 262.9770 14.36103386497235
IRIDIUM 5               
1 24795U 97020D   25344.78367617  .00007505  00000+0  59137-3 0  9992
2 24795  86.3885   2.1688 0102651 222.4877 136.8377 14.96478381511855
IRIDIUM 4               
1 24796U 97020E   25344.62342858  .00000790  00000+0  25998-3 0  9993
2 24796  86.3950  99.7431 0001879  92.7184 267.4228 14.37009005497808
IRIDIUM 914             
1 24836U 97030A   25344.75685711  .00000882  00000+0  26826-3 0  9994
2 24836  86.3930 107.7699 0002385  52.7903 307.3514 14.41065282632554
IRIDIUM 16              
1 24841U 97030F   25344.70448257  .00000888  00000+0  28224-3 0  9997
2 24841  86.4031 131.1712 0002242 152.6347 207.4970 14.38884596492388
IRIDIUM 911             
1 24842U 97030G   25344.64185714  .00001165  00000+0  30889-3 0  9996
2 24842  86.4455 129.7730 0012709 223.3505 136.6700 14.47888859500619
IRIDIUM 17              
1 24870U 97034B   25344.72927359  .00000744  00000+0  23940-3 0  9991
2 24870  86.3969 160.5815 0003049 119.0974 241.0529 14.38020593488959
IRIDIUM 920             
1 24871U 97034C   25344.45757387  .00000843  00000+0  25233-3 0  9991
2 24871  86.3975 139.5273 0010366 211.7338 148.3239 14.41724642491978
